{
  "norad_id": 66000,
  "name": "HULIANWANG DIGUI-92",
  "history": [
    {
      "epoch": "2026-03-27T11:41:12.637248",
      "apogee_km": 1149.8705936737451,
      "perigee_km": 1148.6948107162625,
      "latitude_deg": -46.39432812518491,
      "longitude_deg": 10.747374719940126,
      "semi_major_axis_km": 7527.419702195003,
      "eccentricity": 7.81e-05,
      "inclination_deg": 50.0038,
      "raan_deg": 108.6642,
      "arg_perigee_deg": 284.3019,
      "mean_anomaly_deg": 75.7766,
      "mean_motion_rev_day": 13.29332323
    }
  ]
}